STARLINK-33845          
1 63495U 25071C   26068.50389270  .00022854  00000+0  78173-3 0  9997
2 63495  53.1585 140.6330 0001268  85.2768 274.8377 15.30185595 52722
2025-313BE              
1 67482U 25313BE  26068.69721505  .00077178  00000+0  26504-2 0  9996
2 67482  97.3989 145.3568 0007208 335.3714  24.7181 15.29801687  7972
